{
  "type": "FeatureCollection",
  "features": [
    {
      "type": "Feature",
      "properties": {
        "norad_id": 63632,
        "name": "SHENZHOU-20 (SZ-20)",
        "group": "stations",
        "lat": -27.256476860161047,
        "lon": -102.80922424089293,
        "alt_km": 397.4651763951315,
        "timestamp": "2025-12-08T15:42:48.554184+00:00",
        "meta_object_name": "SHENZHOU-20 (SZ-20)",
        "meta_object_id": "2025-082A",
        "meta_epoch": "2025-12-08T07:04:12.884448",
        "meta_mean_motion": 15.58883062,
        "meta_eccentricity": 0.00091533,
        "meta_inclination": 41.4681,
        "meta_ra_of_asc_node": 43.6887,
        "meta_arg_of_pericenter": 354.9466,
        "meta_mean_anomaly": 5.1278,
        "meta_ephemeris_type": 0,
        "meta_classification_type": "U",
        "meta_norad_cat_id": 63632,
        "meta_element_set_no": 999,
        "meta_rev_at_epoch": 25530,
        "meta_bstar": 0.000309658,
        "meta_mean_motion_dot": 0.00024468,
        "meta_mean_motion_ddot": 0,
        "tle_line1": "1 63632U 25082A   25342.29459357  .00024468  00000+0  30966-3 0  9997",
        "tle_line2": "2 63632  41.4681  43.6887 0009153 354.9466   5.1278 15.58883062255301"
      },
      "geometry": {
        "type": "Point",
        "coordinates": [
          -102.80922424089293,
          -27.256476860161047
        ]
      }
    },
    {
      "type": "Feature",
      "properties": {
        "norad_id": 64751,
        "name": "PROGRESS-MS 31",
        "group": "stations",
        "lat": -51.520003662046065,
        "lon": 68.0904972054928,
        "alt_km": 421.4120969462101,
        "timestamp": "2025-12-08T15:42:48.554194+00:00",
        "meta_object_name": "PROGRESS-MS 31",
        "meta_object_id": "2025-146A",
        "meta_epoch": "2025-12-08T05:16:39.559584",
        "meta_mean_motion": 15.49412336,
        "meta_eccentricity": 0.00034318,
        "meta_inclination": 51.6305,
        "meta_ra_of_asc_node": 164.8582,
        "meta_arg_of_pericenter": 219.3069,
        "meta_mean_anomaly": 140.7671,
        "meta_ephemeris_type": 0,
        "meta_classification_type": "U",
        "meta_norad_cat_id": 64751,
        "meta_element_set_no": 999,
        "meta_rev_at_epoch": 675,
        "meta_bstar": 0.00022082399,
        "meta_mean_motion_dot": 0.00011911,
        "meta_mean_motion_ddot": 0,
        "tle_line1": "1 64751U 25146A   25342.21990231  .00011911  00000+0  22082-3 0  9993",
        "tle_line2": "2 64751  51.6305 164.8582 0003431 219.3069 140.7671 15.49412336  6752"
      },
      "geometry": {
        "type": "Point",
        "coordinates": [
          68.0904972054928,
          -51.520003662046065
        ]
      }
    },
    {
      "type": "Feature",
      "properties": {
        "norad_id": 64786,
        "name": "TIANZHOU-9",
        "group": "stations",
        "lat": -27.25647755790585,
        "lon": -102.80922301130927,
        "alt_km": 397.46517634261636,
        "timestamp": "2025-12-08T15:42:48.554204+00:00",
        "meta_object_name": "TIANZHOU-9",
        "meta_object_id": "2025-149A",
        "meta_epoch": "2025-12-08T07:04:12.884448",
        "meta_mean_motion": 15.58883062,
        "meta_eccentricity": 0.00091533,
        "meta_inclination": 41.4681,
        "meta_ra_of_asc_node": 43.6887,
        "meta_arg_of_pericenter": 354.9466,
        "meta_mean_anomaly": 5.1278,
        "meta_ephemeris_type": 0,
        "meta_classification_type": "U",
        "meta_norad_cat_id": 64786,
        "meta_element_set_no": 999,
        "meta_rev_at_epoch": 25530,
        "meta_bstar": 0.000309658,
        "meta_mean_motion_dot": 0.00024468,
        "meta_mean_motion_ddot": 0,
        "tle_line1": "1 64786U 25149A   25342.29459357  .00024468  00000+0  30966-3 0  9992",
        "tle_line2": "2 64786  41.4681  43.6887 0009153 354.9466   5.1278 15.58883062255302"
      },
      "geometry": {
        "type": "Point",
        "coordinates": [
          -102.80922301130927,
          -27.25647755790585
        ]
      }
    },
    {
      "type": "Feature",
      "properties": {
        "norad_id": 65077,
        "name": "CREW DRAGON 11",
        "group": "stations",
        "lat": -51.52000375560048,
        "lon": 68.0904995839968,
        "alt_km": 421.4120969922469,
        "timestamp": "2025-12-08T15:42:48.554217+00:00",
        "meta_object_name": "CREW DRAGON 11",
        "meta_object_id": "2025-166A",
        "meta_epoch": "2025-12-08T05:16:39.559584",
        "meta_mean_motion": 15.49412336,
        "meta_eccentricity": 0.00034318,
        "meta_inclination": 51.6305,
        "meta_ra_of_asc_node": 164.8582,
        "meta_arg_of_pericenter": 219.3069,
        "meta_mean_anomaly": 140.7671,
        "meta_ephemeris_type": 0,
        "meta_classification_type": "U",
        "meta_norad_cat_id": 65077,
        "meta_element_set_no": 999,
        "meta_rev_at_epoch": 214,
        "meta_bstar": 0.00022082399,
        "meta_mean_motion_dot": 0.00011911,
        "meta_mean_motion_ddot": 0,
        "tle_line1": "1 65077U 25166A   25342.21990231  .00011911  00000+0  22082-3 0  9997",
        "tle_line2": "2 65077  51.6305 164.8582 0003431 219.3069 140.7671 15.49412336  2143"
      },
      "geometry": {
        "type": "Point",
        "coordinates": [
          68.0904995839968,
          -51.52000375560048
        ]
      }
    },
    {
      "type": "Feature",
      "properties": {
        "norad_id": 65304,
        "name": "DRAGON CRS-33",
        "group": "stations",
        "lat": -51.520003796276264,
        "lon": 68.09050061812819,
        "alt_km": 421.4120970122631,
        "timestamp": "2025-12-08T15:42:48.554227+00:00",
        "meta_object_name": "DRAGON CRS-33",
        "meta_object_id": "2025-186A",
        "meta_epoch": "2025-12-08T05:16:39.559584",
        "meta_mean_motion": 15.49412336,
        "meta_eccentricity": 0.00034318,
        "meta_inclination": 51.6305,
        "meta_ra_of_asc_node": 164.8582,
        "meta_arg_of_pericenter": 219.3069,
        "meta_mean_anomaly": 140.7671,
        "meta_ephemeris_type": 0,
        "meta_classification_type": "U",
        "meta_norad_cat_id": 65304,
        "meta_element_set_no": 999,
        "meta_rev_at_epoch": 11,
        "meta_bstar": 0.00022082399,
        "meta_mean_motion_dot": 0.00011911,
        "meta_mean_motion_ddot": 0,
        "tle_line1": "1 65304U 25186A   25342.21990231  .00011911  00000+0  22082-3 0  9992",
        "tle_line2": "2 65304  51.6305 164.8582 0003431 219.3069 140.7671 15.49412336   111"
      },
      "geometry": {
        "type": "Point",
        "coordinates": [
          68.09050061812819,
          -51.520003796276264
        ]
      }
    },
    {
      "type": "Feature",
      "properties": {
        "norad_id": 65586,
        "name": "PROGRESS-MS 32",
        "group": "stations",
        "lat": -51.520003845087196,
        "lon": 68.09050185908576,
        "alt_km": 421.41209703628374,
        "timestamp": "2025-12-08T15:42:48.554239+00:00",
        "meta_object_name": "PROGRESS-MS 32",
        "meta_object_id": "2025-204A",
        "meta_epoch": "2025-12-08T05:16:39.559584",
        "meta_mean_motion": 15.49412336,
        "meta_eccentricity": 0.00034318,
        "meta_inclination": 51.6305,
        "meta_ra_of_asc_node": 164.8582,
        "meta_arg_of_pericenter": 219.3069,
        "meta_mean_anomaly": 140.7671,
        "meta_ephemeris_type": 0,
        "meta_classification_type": "U",
        "meta_norad_cat_id": 65586,
        "meta_element_set_no": 999,
        "meta_rev_at_epoch": 27,
        "meta_bstar": 0.00022082399,
        "meta_mean_motion_dot": 0.00011911,
        "meta_mean_motion_ddot": 0,
        "tle_line1": "1 65586U 25204A   25342.21990231  .00011911  00000+0  22082-3 0  9995",
        "tle_line2": "2 65586  51.6305 164.8582 0003431 219.3069 140.7671 15.49412336   270"
      },
      "geometry": {
        "type": "Point",
        "coordinates": [
          68.09050185908576,
          -51.520003845087196
        ]
      }
    },
    {
      "type": "Feature",
      "properties": {
        "norad_id": 65616,
        "name": "CYGNUS NG-23",
        "group": "stations",
        "lat": -51.52000388576297,
        "lon": 68.09050289321716,
        "alt_km": 421.412097056299,
        "timestamp": "2025-12-08T15:42:48.554249+00:00",
        "meta_object_name": "CYGNUS NG-23",
        "meta_object_id": "2025-208A",
        "meta_epoch": "2025-12-08T05:16:39.559584",
        "meta_mean_motion": 15.49412336,
        "meta_eccentricity": 0.00034318,
        "meta_inclination": 51.6305,
        "meta_ra_of_asc_node": 164.8582,
        "meta_arg_of_pericenter": 219.3069,
        "meta_mean_anomaly": 140.7671,
        "meta_ephemeris_type": 0,
        "meta_classification_type": "U",
        "meta_norad_cat_id": 65616,
        "meta_element_set_no": 999,
        "meta_rev_at_epoch": 22,
        "meta_bstar": 0.00022082399,
        "meta_mean_motion_dot": 0.00011911,
        "meta_mean_motion_ddot": 0,
        "tle_line1": "1 65616U 25208A   25342.21990231  .00011911  00000+0  22082-3 0  9993",
        "tle_line2": "2 65616  51.6305 164.8582 0003431 219.3069 140.7671 15.49412336   229"
      },
      "geometry": {
        "type": "Point",
        "coordinates": [
          68.09050289321716,
          -51.52000388576297
        ]
      }
    }
  ]
}